NORAD_CAT_ID,OBJECT_NAME,OBJECT_TYPE,EPOCH,MEAN_MOTION,ECCENTRICITY,INCLINATION,RA_OF_ASC_NODE,ARG_OF_PERICENTER,MEAN_ANOMALY,BSTAR,MEAN_MOTION_DOT,MEAN_MOTION_DDOT,TLE_LINE0,TLE_LINE1,TLE_LINE2,SEMIMAJOR_AXIS,PERIOD,APOGEE,PERIGEE,DECAYED
55676.0,STARLINK-5300,PAYLOAD,2024-07-12 19:57:15,14.98329782,0.0004188,69.9987,229.6004,269.3138,90.7541,4.8144e-05,4.81e-06,0.0,0 STARLINK-5300,1 55676U 23021BA  24194.83142892  .00000481  00000-0  48144-4 0  9992,2 55676  69.9987 229.6004 0004188 269.3138  90.7541 14.98329782 79178,6950.194,96.107,574.969,569.148,0.0
55676.0,STARLINK-5300,PAYLOAD,2024-07-13 11:58:36,14.98328227,0.0004123,69.9989,227.9181,268.54,91.5287,3.8601e-06,-4.7e-07,0.0,0 STARLINK-5300,1 55676U 23021BA  24195.49903180 -.00000047  00000-0  38601-5 0  9997,2 55676  69.9989 227.9181 0004123 268.5400  91.5287 14.98328227 78975,6950.198,96.107,574.929,569.198,0.0
55676.0,STARLINK-5300,PAYLOAD,2024-07-13 19:59:16,14.98331287,0.0004181,69.9987,227.0757,268.8019,91.2661,2.9439e-05,2.58e-06,0.0,0 STARLINK-5300,1 55676U 23021BA  24195.83282949  .00000258  00000-0  29439-4 0  9999,2 55676  69.9987 227.0757 0004181 268.8019  91.2661 14.98331287 79329,6950.189,96.107,574.96,569.148,0.0
55676.0,STARLINK-5300,PAYLOAD,2024-07-14 12:00:36,14.98336386,0.0004229,69.9985,225.3923,268.7637,91.3038,5.871e-05,6.08e-06,0.0,0 STARLINK-5300,1 55676U 23021BA  24196.50042416  .00000608  00000-0  58710-4 0  9990,2 55676  69.9985 225.3923 0004229 268.7637  91.3038 14.98336386 79123,6950.173,96.107,574.977,569.099,0.0
55676.0,STARLINK-5300,PAYLOAD,2024-07-15 04:01:57,14.98328204,0.0004211,69.9986,223.7091,268.5392,91.5285,7.0321e-05,7.46e-06,0.0,0 STARLINK-5300,1 55676U 23021BA  24197.16802878  .00000746  00000-0  70321-4 0  9994,2 55676  69.9986 223.7091 0004211 268.5392  91.5285 14.98328204 79226,6950.198,96.107,574.99,569.137,0.0
55676.0,STARLINK-5300,PAYLOAD,2024-07-15 12:02:38,14.98328611,0.0004238,69.9986,222.8676,268.6281,91.4393,5.3786e-05,5.49e-06,0.0,0 STARLINK-5300,1 55676U 23021BA  24197.50182951  .00000549  00000-0  53786-4 0  9992,2 55676  69.9986 222.8676 0004238 268.6281  91.4393 14.98328611 79571,6950.197,96.107,575.008,569.117,0.0
55676.0,STARLINK-5300,PAYLOAD,2024-07-15 18:27:10,14.98330563,0.0004244,69.9986,222.1943,268.5499,91.5174,5.7768e-05,5.96e-06,0.0,0 STARLINK-5300,1 55676U 23021BA  24197.76886833  .00000596  00000-0  57768-4 0  9996,2 55676  69.9986 222.1943 0004244 268.5499  91.5174 14.98330563 79610,6950.191,96.107,575.006,569.106,0.0
55676.0,STARLINK-5300,PAYLOAD,2024-07-16 05:40:06,14.98334003,0.0004222,69.9986,221.0161,268.3479,91.7196,3.2259e-05,2.92e-06,0.0,0 STARLINK-5300,1 55676U 23021BA  24198.23618578  .00000292  00000-0  32259-4 0  9999,2 55676  69.9986 221.0161 0004222 268.3479  91.7196 14.98334003 79385,6950.181,96.107,574.98,569.111,0.0
55676.0,STARLINK-5300,PAYLOAD,2024-07-16 12:04:38,14.98334546,0.0004205,69.9986,220.343,267.9236,92.1442,3.2994e-05,3.01e-06,0.0,0 STARLINK-5300,1 55676U 23021BA  24198.50322468  .00000301  00000-0  32994-4 0  9996,2 55676  69.9986 220.3430 0004205 267.9236  92.1442 14.98334546 79722,6950.179,96.107,574.966,569.121,0.0
55676.0,STARLINK-5300,PAYLOAD,2024-07-17 05:42:07,14.98327556,0.0004199,69.9987,218.4913,268.84,91.2278,3.6308e-05,3.4e-06,0.0,0 STARLINK-5300,1 55676U 23021BA  24199.23758904  .00000340  00000-0  36308-4 0  9991,2 55676  69.9987 218.4913 0004199 268.8400  91.2278 14.98327556 79531,6950.2,96.107,574.984,569.147,0.0
55676.0,STARLINK-5300,PAYLOAD,2024-07-17 10:30:31,14.98328016,0.000419,69.9987,217.9863,268.7683,91.2996,3.8247e-05,3.63e-06,0.0,0 STARLINK-5300,1 55676U 23021BA  24199.43786892  .00000363  00000-0  38247-4 0  9999,2 55676  69.9987 217.9863 0004190 268.7683  91.2996 14.98328016 79867,6950.199,96.107,574.976,569.152,0.0
55676.0,STARLINK-5300,PAYLOAD,2024-07-18 10:32:32,14.98333309,0.0004145,69.9987,215.4614,267.9173,92.1512,4.6604e-05,4.63e-06,0.0,0 STARLINK-5300,1 55676U 23021BA  24200.43926578  .00000463  00000-0  46604-4 0  9996,2 55676  69.9987 215.4614 0004145 267.9173  92.1512 14.98333309 80013,6950.183,96.107,574.929,569.167,0.0
55676.0,STARLINK-5300,PAYLOAD,2024-07-18 18:33:12,14.98333072,0.0004246,69.9985,214.6196,268.9766,91.0906,5.8439e-05,6.04e-06,0.0,0 STARLINK-5300,1 55676U 23021BA  24200.77306515  .00000604  00000-0  58439-4 0  9992,2 55676  69.9985 214.6196 0004246 268.9766  91.0906 14.98333072 80065,6950.183,96.107,574.999,569.097,0.0
55676.0,STARLINK-5300,PAYLOAD,2024-07-19 10:34:33,14.98333304,0.000424,69.9984,212.9359,267.9938,92.0735,9.2449e-05,1.01e-05,0.0,0 STARLINK-5300,1 55676U 23021BA  24201.44066406  .00001010  00000-0  92449-4 0  9990,2 55676  69.9984 212.9359 0004240 267.9938  92.0735 14.98333304 79865,6950.183,96.107,574.995,569.101,0.0
55676.0,STARLINK-5300,PAYLOAD,2024-07-19 18:35:13,14.98332681,0.0004232,69.9985,212.0942,267.9164,92.151,6.8581e-05,7.25e-06,0.0,0 STARLINK-5300,1 55676U 23021BA  24201.77446381  .00000725  00000-0  68581-4 0  9992,2 55676  69.9985 212.0942 0004232 267.9164  92.1510 14.98332681 80217,6950.185,96.107,574.991,569.108,0.0
55676.0,STARLINK-5300,PAYLOAD,2024-07-20 10:36:34,14.98334467,0.0004221,69.9986,210.4113,267.9271,92.1405,5.2527e-05,5.34e-06,0.0,0 STARLINK-5300,1 55676U 23021BA  24202.44206202  .00000534  00000-0  52527-4 0  9994,2 55676  69.9986 210.4113 0004221 267.9271  92.1405 14.98334467 80012,6950.179,96.107,574.978,569.11,0.0
55676.0,STARLINK-5300,PAYLOAD,2024-07-21 10:38:35,14.98330684,0.0004168,69.999,207.8866,267.7464,92.3217,1.2243e-05,5.3e-07,0.0,0 STARLINK-5300,1 55676U 23021BA  24203.44346479  .00000053  00000-0  12243-4 0  9993,2 55676  69.9990 207.8866 0004168 267.7464  92.3217 14.98330684 80160,6950.191,96.107,574.953,569.159,0.0
55676.0,STARLINK-5300,PAYLOAD,2024-07-22 10:40:36,14.98332245,0.0004112,69.9993,205.3622,266.6526,93.4163,3.6971e-05,3.48e-06,0.0,0 STARLINK-5300,1 55676U 23021BA  24204.44486283  .00000348  00000-0  36971-4 0  9993,2 55676  69.9993 205.3622 0004112 266.6526  93.4163 14.98332245 80316,6950.186,96.107,574.909,569.193,0.0
55676.0,STARLINK-5300,PAYLOAD,2024-07-23 09:06:28,14.98332487,0.0004134,69.9994,203.0055,267.3833,92.6853,8.5938e-05,9.33e-06,0.0,0 STARLINK-5300,1 55676U 23021BA  24205.37950144  .00000933  00000-0  85938-4 0  9995,2 55676  69.9994 203.0055 0004134 267.3833  92.6853 14.98332487 80758,6950.185,96.107,574.923,569.177,0.0
55676.0,STARLINK-5300,PAYLOAD,2024-07-24 04:20:06,14.98327269,0.0004056,69.9994,200.9855,266.2077,93.8618,1.0951e-05,3.8e-07,0.0,0 STARLINK-5300,1 55676U 23021BA  24206.18062679  .00000038  00000-0  10951-4 0  9991,2 55676  69.9994 200.9855 0004056 266.2077  93.8618 14.98327269 80577,6950.201,96.107,574.885,569.247,0.0
55676.0,STARLINK-5300,PAYLOAD,2024-07-24 09:08:30,14.98327663,0.0004054,69.9994,200.4805,266.0793,93.9903,1.4045e-05,7.4e-07,0.0,0 STARLINK-5300,1 55676U 23021BA  24206.38090675  .00000074  00000-0  14045-4 0  9998,2 55676  69.9994 200.4805 0004054 266.0793  93.9903 14.98327663 80901,6950.2,96.107,574.883,569.248,0.0
55676.0,STARLINK-5300,PAYLOAD,2024-07-25 04:22:05,14.98341387,0.0004215,69.999,198.4591,268.8836,91.184,0.00024801,2.868e-05,0.0,0 STARLINK-5300,1 55676U 23021BA  24207.18200859  .00002868  00000-0  24801-3 0  9997,2 55676  69.9990 198.4591 0004215 268.8836  91.1840 14.98341387 80721,6950.158,96.106,574.952,569.093,0.0
55676.0,STARLINK-5300,PAYLOAD,2024-07-25 05:58:13,14.98348878,0.00042,69.9991,198.292,267.3383,92.7295,0.00019491,2.235e-05,0.0,0 STARLINK-5300,1 55676U 23021BA  24207.24876473  .00002235  00000-0  19491-3 0  9992,2 55676  69.9991 198.2920 0004200 267.3383  92.7295 14.98348878 81039,6950.135,96.106,574.919,569.08,0.0
55676.0,STARLINK-5300,PAYLOAD,2024-07-25 09:10:28,14.98359701,0.0004076,69.9994,197.9558,266.7553,93.314,0.00031999,3.73e-05,0.0,0 STARLINK-5300,1 55676U 23021BA  24207.38227279  .00003730  00000-0  31999-3 0  9999,2 55676  69.9994 197.9558 0004076 266.7553  93.3140 14.98359701 80759,6950.101,96.105,574.799,569.133,0.0
55676.0,STARLINK-5300,PAYLOAD,2024-07-25 21:59:33,14.98346415,0.0003716,70.0004,196.6102,265.0139,95.0596,0.00027326,3.17e-05,0.0,0 STARLINK-5300,1 55676U 23021BA  24207.91635445  .00003170  00000-0  27326-3 0  9993,2 55676  70.0004 196.6102 0003716 265.0139  95.0596 14.98346415 81132,6950.142,96.106,574.59,569.424,0.0
55676.0,STARLINK-5300,PAYLOAD,2024-07-26 04:24:05,14.98344243,0.0004528,69.9968,195.9346,268.1768,91.8873,0.00011978,1.337e-05,0.0,0 STARLINK-5300,1 55676U 23021BA  24208.18339686  .00001337  00000-0  11978-3 0  9990,2 55676  69.9968 195.9346 0004528 268.1768  91.8873 14.98344243 80873,6950.149,96.106,575.161,568.867,0.0
55676.0,STARLINK-5300,PAYLOAD,2024-07-26 09:12:30,14.98330787,0.000418,69.9988,195.4323,271.1046,88.9634,-1.1343e-05,-2.29e-06,0.0,0 STARLINK-5300,1 55676U 23021BA  24208.38368890 -.00000229  00000-0 -11343-4 0  9999,2 55676  69.9988 195.4323 0004180 271.1046  88.9634 14.98330787 80906,6950.19,96.107,574.961,569.15,0.0
55676.0,STARLINK-5300,PAYLOAD,2024-07-26 22:01:35,14.98334715,0.0003873,69.9998,194.0847,271.1063,88.9652,-0.00023978,-2.953e-05,0.0,0 STARLINK-5300,1 55676U 23021BA  24208.91777248 -.00002953  00000-0 -23978-3 0  9991,2 55676  69.9998 194.0847 0003873 271.1063  88.9652 14.98334715 81287,6950.178,96.107,574.735,569.352,0.0
55676.0,STARLINK-5300,PAYLOAD,2024-07-27 06:02:15,14.98337045,0.0003765,69.9997,193.2429,270.815,89.2578,-0.00027321,-3.352e-05,0.0,0 STARLINK-5300,1 55676U 23021BA  24209.25157053 -.00003352  00000-0 -27321-3 0  9995,2 55676  69.9997 193.2429 0003765 270.8150  89.2578 14.98337045 81332,6950.171,96.107,574.653,569.419,0.0
55676.0,STARLINK-5300,PAYLOAD,2024-07-27 09:14:32,14.98320868,0.0003522,69.9999,192.9065,268.5034,91.5722,1.9239e-05,1.36e-06,0.0,0 STARLINK-5300,1 55676U 23021BA  24209.38509439  .00000136  00000-0  19239-4 0  9993,2 55676  69.9999 192.9065 0003522 268.5034  91.5722 14.98320868 81053,6950.221,96.108,574.534,569.638,0.0
